[{"OBJECT_NAME":"IRIDIUM 33 DEB","OBJECT_ID":"1997-051ZR","EPOCH":"2026-03-05T23:33:02.494368","MEAN_MOTION":14.55528801,"ECCENTRICITY":0.00047597,"INCLINATION":86.3233,"RA_OF_ASC_NODE":313.8754,"ARG_OF_PERICENTER":113.3476,"MEAN_ANOMALY":246.8233,"EPHEMERIS_TYPE":0,"CLASSIFICATION_TYPE":"U","NORAD_CAT_ID":38241,"ELEMENT_SET_NO":999,"REV_AT_EPOCH":61411,"BSTAR":0.0006958397,"MEAN_MOTION_DOT":3.05e-5,"MEAN_MOTION_DDOT":0},{"OBJECT_NAME":"IRIDIUM 33 DEB","OBJECT_ID":"1997-051ABJ","EPOCH":"2026-03-07T11:02:11.153184","MEAN_MOTION":15.04355632,"ECCENTRICITY":0.00105712,"INCLINATION":86.348,"RA_OF_ASC_NODE":321.5871,"ARG_OF_PERICENTER":86.7515,"MEAN_ANOMALY":38.318,"EPHEMERIS_TYPE":0,"CLASSIFICATION_TYPE":"U","NORAD_CAT_ID":40996,"ELEMENT_SET_NO":999,"REV_AT_EPOCH":63758,"BSTAR":0.0045408492,"MEAN_MOTION_DOT":0.00063892,"MEAN_MOTION_DDOT":0},{"OBJECT_NAME":"IRIDIUM 33 DEB","OBJECT_ID":"1997-051ABX","EPOCH":"2026-03-05T15:09:14.031360","MEAN_MOTION":14.61027741,"ECCENTRICITY":0.0020944,"INCLINATION":86.333,"RA_OF_ASC_NODE":303.9282,"ARG_OF_PERICENTER":47.4459,"MEAN_ANOMALY":342.3534,"EPHEMERIS_TYPE":0,"CLASSIFICATION_TYPE":"U","NORAD_CAT_ID":46965,"ELEMENT_SET_NO":999,"REV_AT_EPOCH":63478,"BSTAR":0.00082387,"MEAN_MOTION_DOT":4.076e-5,"MEAN_MOTION_DDOT":0},{"OBJECT_NAME":"IRIDIUM 33 DEB","OBJECT_ID":"1997-051ACD","EPOCH":"2026-02-15T04:06:14.442336","MEAN_MOTION":15.0282309,"ECCENTRICITY":0.00183243,"INCLINATION":86.3384,"RA_OF_ASC_NODE":302.6959,"ARG_OF_PERICENTER":121.5358,"MEAN_ANOMALY":29.3036,"EPHEMERIS_TYPE":0,"CLASSIFICATION_TYPE":"U","NORAD_CAT_ID":46971,"ELEMENT_SET_NO":999,"REV_AT_EPOCH":65196,"BSTAR":0.0024316654,"MEAN_MOTION_DOT":0.00032805,"MEAN_MOTION_DDOT":0},{"OBJECT_NAME":"IRIDIUM 33 DEB","OBJECT_ID":"1997-051ACE","EPOCH":"2026-02-13T16:21:13.155264","MEAN_MOTION":14.51029384,"ECCENTRICITY":0.00070915,"INCLINATION":86.39,"RA_OF_ASC_NODE":12.2992,"ARG_OF_PERICENTER":258.5659,"MEAN_ANOMALY":223.6549,"EPHEMERIS_TYPE":0,"CLASSIFICATION_TYPE":"U","NORAD_CAT_ID":46972,"ELEMENT_SET_NO":999,"REV_AT_EPOCH":62485,"BSTAR":0.00064339815,"MEAN_MOTION_DOT":2.565e-5,"MEAN_MOTION_DDOT":0},{"OBJECT_NAME":"IRIDIUM 33 DEB","OBJECT_ID":"1997-051ACG","EPOCH":"2026-02-19T19:32:51.839232","MEAN_MOTION":14.46114347,"ECCENTRICITY":0.0088187,"INCLINATION":86.296,"RA_OF_ASC_NODE":75.0684,"ARG_OF_PERICENTER":318.574,"MEAN_ANOMALY":40.8797,"EPHEMERIS_TYPE":0,"CLASSIFICATION_TYPE":"U","NORAD_CAT_ID":46974,"ELEMENT_SET_NO":999,"REV_AT_EPOCH":58506,"BSTAR":0.0022535,"MEAN_MOTION_DOT":8.465e-5,"MEAN_MOTION_DDOT":0}]
